[{"OBJECT_NAME":"STARLINK-4137","OBJECT_ID":"2022-076AX","EPOCH":"2026-03-09T05:22:21.793440","MEAN_MOTION":15.08842432,"ECCENTRICITY":0.00013785,"INCLINATION":53.2171,"RA_OF_ASC_NODE":76.2113,"ARG_OF_PERICENTER":97.5661,"MEAN_ANOMALY":262.5488,"EPHEMERIS_TYPE":0,"CLASSIFICATION_TYPE":"U","NORAD_CAT_ID":53031,"ELEMENT_SET_NO":999,"REV_AT_EPOCH":20305,"BSTAR":-2.54542e-7,"MEAN_MOTION_DOT":-2.92e-6,"MEAN_MOTION_DDOT":0},{"OBJECT_NAME":"CZ-4B DEB","OBJECT_ID":"2006-015E","EPOCH":"2026-03-09T20:34:53.082912","MEAN_MOTION":15.19885806,"ECCENTRICITY":0.00461993,"INCLINATION":98.0565,"RA_OF_ASC_NODE":201.7753,"ARG_OF_PERICENTER":62.4887,"MEAN_ANOMALY":298.1031,"EPHEMERIS_TYPE":0,"CLASSIFICATION_TYPE":"U","NORAD_CAT_ID":29538,"ELEMENT_SET_NO":999,"REV_AT_EPOCH":5389,"BSTAR":0.0022587151,"MEAN_MOTION_DOT":0.00050103,"MEAN_MOTION_DDOT":0}]
